Results
*******************************************************************************
 Revised: Aug 07, 2025             Paaliaq / (Saturn)                       620

 For mean orbital elements, see https://ssd.jpl.nasa.gov/sats/elem/
 Recently discovered Saturnian irregular.
*******************************************************************************


*******************************************************************************
Ephemeris / API_USER Mon Dec  1 01:09:39 2025 Pasadena, USA      / Horizons    
*******************************************************************************
Target body name: Paaliaq (620)                   {source: sat456_merged_DE440}
Center body name: Earth (399)                     {source: sat456_merged_DE440}
Center-site name: GEOCENTRIC
*******************************************************************************
Start time      : A.D. 2020-Jan-01 00:00:00.0000 UT      
Stop  time      : A.D. 2020-Dec-20 00:00:00.0000 UT      
Step-size       : 1440 minutes
*******************************************************************************
Target pole/equ : undefined
Target radii    : undefined                                                    
Center geodetic : 0.0, 0.0, -6378.137             {E-lon(deg),Lat(deg),Alt(km)}
Center cylindric: 0.0, 0.0, 0.0                   {E-lon(deg),Dxy(km),Dz(km)}
Center pole/equ : ITRF93                          {East-longitude positive}
Center radii    : 6378.137, 6378.137, 6356.752 km {Equator_a, b, pole_c}       
Target primary  : Saturn
Vis. interferer : MOON (R_eq= 1737.400) km        {source: sat456_merged_DE440}
Rel. light bend : Sun                             {source: sat456_merged_DE440}
Rel. lght bnd GM: 1.3271E+11 km^3/s^2                                          
Atmos refraction: NO (AIRLESS)
RA format       : HMS
Time format     : CAL 
Calendar mode   : Mixed Julian/Gregorian
EOP file        : eop.251128.p260224                                           
EOP coverage    : DATA-BASED 1962-JAN-20 TO 2025-NOV-28. PREDICTS-> 2026-FEB-23
Units conversion: 1 au= 149597870.700 km, c= 299792.458 km/s, 1 day= 86400.0 s 
Table cut-offs 1: Elevation (-90.0deg=NO ),Airmass (>38.000=NO), Daylight (NO )
Table cut-offs 2: Solar elongation (  0.0,180.0=NO ),Local Hour Angle( 0.0=NO )
Table cut-offs 3: RA/DEC angular rate (     0.0=NO )                           
**************************************************************************************************************************
 Date__(UT)__HR:MN     R.A._____(ICRF)_____DEC    APmag   S-brt             delta      deldot     S-O-T /r     S-T-O  Cnst
**************************************************************************************************************************
$$SOE
 2020-Dec-14 00:00     20 05 53.38 -20 52 01.4     n.a.    n.a.  10.7732449713334  19.6242047   37.0401 /T    3.4003   Sgr
 2020-Dec-15 00:00     20 06 20.27 -20 50 47.2     n.a.    n.a.  10.7844677797270  19.2386752   36.1293 /T    3.3275   Sgr
 2020-Dec-16 00:00     20 06 47.35 -20 49 31.8     n.a.    n.a.  10.7954663395272  18.8477051   35.2192 /T    3.2540   Sgr
 2020-Dec-17 00:00     20 07 14.64 -20 48 15.1     n.a.    n.a.  10.8062376105997  18.4516478   34.3097 /T    3.1797   Sgr
 2020-Dec-18 00:00     20 07 42.10 -20 46 57.3     n.a.    n.a.  10.8167787540764  18.0508425   33.4009 /T    3.1048   Cap
 2020-Dec-19 00:00     20 08 09.75 -20 45 38.2     n.a.    n.a.  10.8270871180342  17.6455952   32.4928 /T    3.0292   Cap
 2020-Dec-20 00:00     20 08 37.57 -20 44 17.9     n.a.    n.a.  10.8371602157980  17.2361721   31.5853 /T    2.9530   Cap
